STARLINK-2336_new
1 17879C 21021V   21326.09516804  .00002578  00000-0  17277-3 0  3261
2 17879  53.0540 128.3251 0001611  82.4158 171.1793 15.06383924    14
STARLINK-2336_old
1 27879C 21021V   21325.12624152  .00000887  00000-0  59457-4 0  3257
2 27879  53.0536 132.6746 0001619  83.0819 313.1404 15.06380725    18
